{"type":"FeatureCollection", "features": [
{"type":"Feature","geometry":{"type":"Polygon","coordinates":[[[6.8712,46.4587],[6.7844,46.4784],[6.6201,46.5194],[6.5977,46.5223],[6.5109,46.5176],[6.495,46.5132],[6.4358,46.4796],[6.4191,46.4731],[6.3528,46.4673],[6.3346,46.4614],[6.3184,46.4511],[6.1765,46.3001],[6.16,46.2689],[6.1532,46.2312],[6.1459,46.2265],[6.1403,46.2203],[6.1362,46.2132],[6.1332,46.2047],[6.183,46.2388],[6.2371,46.3124],[6.2948,46.3739],[6.3555,46.3716],[6.3761,46.3507],[6.3837,46.348],[6.3937,46.3513],[6.4082,46.3654],[6.4176,46.3684],[6.4329,46.3716],[6.4647,46.3857],[6.4791,46.389],[6.4841,46.3922],[6.4947,46.4063],[6.4994,46.4093],[6.6972,46.4231],[6.8677,46.4025],[6.9139,46.4043],[6.9354,46.4231],[6.9165,46.4419],[6.8712,46.4587]]]},"properties":{"featurecla":"Lake","scalerank":4,"name":"Lake Geneva","name_abb":"L. Geneva","name_alt":"Lac Léman","note":null,"delta":null,"dam_name":null,"year":-99,"admin":"admin-0 more","min_zoom":4,"min_label":5,"label":"Lake Geneva","wikidataid":"Q6403","name_ar":"بحيرة ليمان","name_bn":"লেক জেনেভা","name_de":"Genfersee","name_en":"Geneva","name_es":"Lemán","name_fr":"Léman","name_el":"Λίμνη της Γενεύης","name_hi":"जेनेवा झील","name_hu":"Genfi-tó","name_id":"Jenewa","name_it":"Lemano","name_ja":"レマン湖","name_ko":"레만호","name_nl":"Meer van Genève","name_pl":"Jezioro Genewskie","name_pt":"Léman","name_ru":"Женевское озеро","name_sv":"Genèvesjön","name_tr":"Cenevre","name_vi":"Genève","name_zh":"萊芒湖","ne_id":1159114143,"name_fa":"دریاچه لمان","name_he":"אגם ז'נבה","name_uk":"Женевське озеро","name_ur":"جھیل جینیوا","name_zht":"萊芒湖"}},
{"type":"Feature","geometry":{"type":"Polygon","coordinates":[[[9.7186,47.5467],[9.6762,47.554],[9.6347,47.5744],[9.5944,47.5882],[9.5529,47.5935],[9.5375,47.5991],[9.5217,47.6126],[9.5149,47.6232],[9.5114,47.6329],[9.5072,47.6421],[9.4981,47.65],[9.4881,47.6538],[9.4566,47.6565],[9.403,47.675],[9.3845,47.6774],[9.3412,47.678],[9.3224,47.6818],[9.2267,47.7248],[9.2223,47.7292],[9.2158,47.751],[9.2108,47.7595],[9.2034,47.7625],[9.1761,47.7657],[9.0719,47.8166],[9.0321,47.8207],[9.0401,47.811],[9.073,47.7875],[9.091,47.7792],[9.131,47.7678],[9.1487,47.7595],[9.1616,47.7469],[9.169,47.7333],[9.1749,47.7189],[9.1828,47.7042],[9.2055,47.6815],[9.2064,47.6724],[9.1828,47.6706],[9.2067,47.6474],[9.3712,47.5811],[9.3807,47.5744],[9.3824,47.5697],[9.398,47.544],[9.4021,47.5435],[9.4946,47.4881],[9.5178,47.4928],[9.5529,47.5123],[9.5655,47.5064],[9.5788,47.5017],[9.5929,47.4993],[9.6079,47.4993],[9.615,47.5019],[9.627,47.5105],[9.6347,47.5123],[9.6412,47.5105],[9.6429,47.5017],[9.6488,47.4993],[9.6697,47.4984],[9.6762,47.4993],[9.6815,47.5031],[9.6871,47.5164],[9.6897,47.5199],[9.7024,47.5217],[9.7445,47.5199],[9.7321,47.5384],[9.7186,47.5467]]]},"properties":{"featurecla":"Lake","scalerank":5,"name":"Bodensee","name_abb":"Bodensee","name_alt":"Lake Constance","note":null,"delta":null,"dam_name":null,"year":-99,"admin":"admin-0","min_zoom":4.7,"min_label":6,"label":"Bodensee","wikidataid":"Q4127","name_ar":"بحيرة كونستانس","name_bn":"বোদেন্সি","name_de":"Bodensee","name_en":"Constance","name_es":"Constanza","name_fr":"Constance","name_el":"Λίμνη Κωνσταντίας","name_hi":"बोडेनसी","name_hu":"Boden-tó","name_id":"Konstanz","name_it":"Costanza","name_ja":"ボーデン湖","name_ko":"보덴호","name_nl":"Bodenmeer","name_pl":"Jezioro Bodeńskie","name_pt":"Constança","name_ru":"Боденское озеро","name_sv":"Bodensjön","name_tr":"Konstanz","name_vi":"Bodensee","name_zh":"博登湖","ne_id":1159114259,"name_fa":"دریاچه کنستانس","name_he":"ימת קונסטנץ","name_uk":"Боденське озеро","name_ur":"جھیل کونسٹانس","name_zht":"博登湖"}},
{"type":"Feature","geometry":{"type":"Polygon","coordinates":[[[9.066,47.723],[8.9836,47.7525],[8.9836,47.7463],[9.0048,47.7389],[9.0048,47.7321],[8.9891,47.7371],[8.9815,47.7383],[8.9712,47.7389],[8.9665,47.741],[8.9615,47.7445],[8.9562,47.7474],[8.9494,47.7463],[8.9462,47.7433],[8.9432,47.7383],[8.9429,47.7339],[8.9462,47.7321],[8.9574,47.7283],[9.0048,47.7042],[8.9862,47.6865],[8.9353,47.6683],[8.9147,47.6565],[8.8811,47.6565],[8.9055,47.6521],[8.9447,47.6544],[8.9812,47.6624],[8.9974,47.6742],[9.0159,47.6792],[9.1275,47.6706],[9.1037,47.7006],[9.066,47.723]]]},"properties":{"featurecla":"Lake","scalerank":6,"name":null,"name_abb":null,"name_alt":null,"note":"_untitled_46","delta":null,"dam_name":null,"year":-99,"admin":null,"min_zoom":5,"min_label":6.5,"label":null,"wikidataid":null,"name_ar":null,"name_bn":null,"name_de":null,"name_en":null,"name_es":null,"name_fr":null,"name_el":null,"name_hi":null,"name_hu":null,"name_id":null,"name_it":null,"name_ja":null,"name_ko":null,"name_nl":null,"name_pl":null,"name_pt":null,"name_ru":null,"name_sv":null,"name_tr":null,"name_vi":null,"name_zh":null,"ne_id":1159115487,"name_fa":null,"name_he":null,"name_uk":null,"name_ur":null,"name_zht":null}},
{"type":"Feature","geometry":{"type":"Polygon","coordinates":[[[8.8461,46.1691],[8.8437,46.1702],[8.8411,46.1714],[8.8314,46.1717],[8.7952,46.1644],[8.7634,46.1493],[8.7333,46.1305],[8.7107,46.1105],[8.7004,46.0919],[8.7004,46.0916],[8.7001,46.0887],[8.7004,46.0811],[8.7069,46.0646],[8.7139,46.0519],[8.7136,46.0387],[8.6966,46.0204],[8.6877,46.0148],[8.6783,46.0104],[8.6271,45.9636],[8.6156,45.9551],[8.5915,45.943],[8.5603,45.9321],[8.5405,45.933],[8.5146,45.9412],[8.5037,45.943],[8.5014,45.9427],[8.4987,45.9424],[8.4964,45.9412],[8.4943,45.9398],[8.4929,45.9377],[8.4955,45.9297],[8.5138,45.905],[8.5211,45.8977],[8.5664,45.87],[8.5744,45.852],[8.567,45.8185],[8.56,45.8076],[8.552,45.8005],[8.5488,45.7911],[8.5558,45.7734],[8.5661,45.757],[8.5788,45.7419],[8.5941,45.7299],[8.6121,45.7222],[8.6144,45.7231],[8.6165,45.7234],[8.6185,45.724],[8.6206,45.7255],[8.5776,45.7667],[8.577,45.7676],[8.5767,45.7681],[8.5726,45.7743],[8.572,45.7755],[8.572,45.7764],[8.5706,45.7784],[8.5703,45.779],[8.5703,45.7837],[8.5712,45.7879],[8.5729,45.7911],[8.575,45.794],[8.575,45.7943],[8.5803,45.7985],[8.6074,45.8099],[8.6132,45.8141],[8.6183,45.8197],[8.6215,45.827],[8.6215,45.847],[8.6044,45.8827],[8.6062,45.9053],[8.6065,45.9059],[8.6074,45.9071],[8.6079,45.9077],[8.6079,45.9083],[8.6079,45.9086],[8.6168,45.9203],[8.6188,45.9227],[8.6486,45.9451],[8.7201,45.9816],[8.7325,45.9898],[8.7381,45.9945],[8.746,46.0039],[8.7504,46.0107],[8.7522,46.0142],[8.7528,46.0157],[8.7531,46.016],[8.7534,46.0175],[8.7531,46.0272],[8.7528,46.0289],[8.7439,46.0534],[8.7419,46.064],[8.7419,46.0834],[8.7448,46.0902],[8.746,46.0925],[8.7478,46.0943],[8.7534,46.0996],[8.7802,46.1176],[8.8417,46.1543],[8.849,46.1649],[8.8479,46.1673],[8.8461,46.1691]]]},"properties":{"featurecla":"Lake","scalerank":7,"name":"Lago di Como","name_abb":"L. di Como","name_alt":null,"note":null,"delta":null,"dam_name":null,"year":-99,"admin":null,"min_zoom":5.7,"min_label":6.7,"label":"Lago di Como","wikidataid":"Q15523","name_ar":"بحيرة كومو","name_bn":"লাগো দি কোমো","name_de":"Comer","name_en":"Como","name_es":"Como","name_fr":"Côme","name_el":"λίμνη Κόμο","name_hi":"लागो डि कोमो","name_hu":"Comói-tó","name_id":"Como","name_it":"Como","name_ja":"コモ湖","name_ko":"코모호","name_nl":"Comomeer","name_pl":"Como","name_pt":"Como","name_ru":"Комо","name_sv":"Comosjön","name_tr":"Como","name_vi":"Como","name_zh":"科莫湖","ne_id":1159116693,"name_fa":"دریاچه کومو","name_he":"אגם קומו","name_uk":"Комо","name_ur":"لاگو ڈی کومو","name_zht":"科莫湖"}},
{"type":"Feature","geometry":{"type":"Polygon","coordinates":[[[10.8551,45.8956],[10.8419,45.8847],[10.8357,45.8709],[10.8316,45.8567],[10.8239,45.8438],[10.7877,45.8064],[10.783,45.7999],[10.7636,45.787],[10.7294,45.7302],[10.7144,45.7172],[10.6282,45.6628],[10.6029,45.6422],[10.5911,45.6354],[10.5254,45.608],[10.5422,45.6086],[10.5569,45.6057],[10.5678,45.5986],[10.5737,45.5871],[10.5555,45.5812],[10.5575,45.5724],[10.5675,45.5615],[10.5737,45.5491],[10.5675,45.5406],[10.5216,45.5091],[10.5193,45.5065],[10.5163,45.5047],[10.5116,45.5044],[10.5116,45.4982],[10.5213,45.4982],[10.5304,45.497],[10.5384,45.4947],[10.5466,45.4909],[10.539,45.4841],[10.5593,45.4744],[10.5831,45.472],[10.6026,45.4811],[10.6084,45.5044],[10.612,45.4814],[10.6305,45.467],[10.6558,45.4594],[10.68,45.4573],[10.6932,45.4511],[10.7009,45.4493],[10.7041,45.4538],[10.7056,45.4588],[10.7124,45.4741],[10.7182,45.4823],[10.7312,45.5182],[10.7253,45.5285],[10.7129,45.5653],[10.7109,45.5809],[10.6897,45.5759],[10.692,45.5974],[10.7109,45.6522],[10.72,45.6704],[10.7624,45.721],[10.7762,45.7316],[10.7845,45.7434],[10.8481,45.8135],[10.8628,45.8376],[10.8698,45.8603],[10.8678,45.8797],[10.8551,45.8956]]]},"properties":{"featurecla":"Lake","scalerank":7,"name":"Lago di Garda","name_abb":"L. di Garda","name_alt":null,"note":null,"delta":null,"dam_name":null,"year":-99,"admin":null,"min_zoom":5.7,"min_label":6.7,"label":"Lago di Garda","wikidataid":"Q6414","name_ar":"بحيرة غاردا","name_bn":"গারদা হ্রদ","name_de":"Gardasee","name_en":"Garda","name_es":"Garda","name_fr":"Garde","name_el":"Λίμνη Γκάρντα","name_hi":"लागो डि गार्डा","name_hu":"Garda-tó","name_id":"Garda","name_it":"Garda","name_ja":"ガルダ湖","name_ko":"가르다호","name_nl":"Gardameer","name_pl":"Garda","name_pt":"Garda","name_ru":"Гарда","name_sv":"Gardasjön","name_tr":"Garda","name_vi":"Garda","name_zh":"加尔达湖","ne_id":1159116699,"name_fa":"دریاچه گاردا","name_he":"אגם גארדה","name_uk":"Гарда","name_ur":"لاگو ڈی گارڈا","name_zht":"加尔达湖"}},
{"type":"Feature","geometry":{"type":"Polygon","coordinates":[[[-2.602,40.7189],[-2.6284,40.6998],[-2.6549,40.6768],[-2.6588,40.6703],[-2.6619,40.668],[-2.6752,40.6512],[-2.6762,40.6468],[-2.6927,40.6362],[-2.7151,40.6115],[-2.7271,40.5838],[-2.714,40.5638],[-2.7324,40.5329],[-2.7376,40.512],[-2.7239,40.5023],[-2.7092,40.5099],[-2.6906,40.5482],[-2.673,40.5638],[-2.6953,40.5817],[-2.6934,40.6009],[-2.6777,40.6206],[-2.6588,40.6394],[-2.6566,40.6459],[-2.6577,40.653],[-2.6577,40.6603],[-2.6519,40.6668],[-2.631,40.6854],[-2.6247,40.6898],[-2.6097,40.6965],[-2.5995,40.7033],[-2.5769,40.7242],[-2.5869,40.7257],[-2.602,40.7189]]]},"properties":{"featurecla":"Reservoir","scalerank":7,"name":"Embalse de Entrepeas","name_abb":"Emb. de Entrepeas","name_alt":null,"note":null,"delta":null,"dam_name":null,"year":-99,"admin":null,"min_zoom":5.7,"min_label":6.7,"label":null,"wikidataid":null,"name_ar":"خزان إنتربياس","name_bn":"এম্বালসে দে এন্ত্রেপিয়েস","name_de":"Entrepeñas-Stausee","name_en":"Embalse de Entrepeñas","name_es":"Embalse de Entrepeñas","name_fr":"Embalse de Entrepeñas","name_el":"Εμπάλσε ντε Εντρεπεάς","name_hi":"एम्बेल्स द एंट्रपीस","name_hu":"Embalse de Entrepeas","name_id":"Reservoir Entrepeas","name_it":"Embalse de Entrepeñas","name_ja":"エントレペーニャス・ダム","name_ko":"엠발스 드 앙트레페스","name_nl":"Entrepeñas Reservoir","name_pl":"Zbiornik Entrepeas","name_pt":"Represa de Entrepeñas","name_ru":"водохранилище Энтрепеньяс","name_sv":"Embalse de Entrepeas","name_tr":"Embalse de Entrepeas","name_vi":"Hồ Entrepeas","name_zh":"恩崔培思水库","ne_id":1159125457,"name_fa":"امبالس د انترپیس","name_he":"מאגר דה אנטרפאס","name_uk":"водосховище Ентрепіас","name_ur":"ایمبالسی ڈی اینٹریپیس","name_zht":"安特里皮水庫"}}
]}